{
    "links": {
        "self": "http://www.neowsapp.com/rest/v1/neo/3843599?api_key=iIulBulltgU6a56xZRHN4H3l9WmuAYTsLGpBGhQ2"
    },
    "id": "3843599",
    "neo_reference_id": "3843599",
    "name": "(2019 QL1)",
    "designation": "2019 QL1",
    "nasa_jpl_url": "http://ssd.jpl.nasa.gov/sbdb.cgi?sstr=3843599",
    "absolute_magnitude_h": 22.9,
    "estimated_diameter": {
        "kilometers": {
            "estimated_diameter_min": 0.0699125232,
            "estimated_diameter_max": 0.1563291544
        },
        "meters": {
            "estimated_diameter_min": 69.9125232246,
            "estimated_diameter_max": 156.3291544087
        },
        "miles": {
            "estimated_diameter_min": 0.0434416145,
            "estimated_diameter_max": 0.097138403
        },
        "feet": {
            "estimated_diameter_min": 229.3718026961,
            "estimated_diameter_max": 512.8909429502
        }
    },
    "is_potentially_hazardous_asteroid": false,
    "close_approach_data": [
        {
            "close_approach_date": "2019-09-05",
            "close_approach_date_full": "2019-Sep-05 04:03",
            "epoch_date_close_approach": 1567656180000,
            "relative_velocity": {
                "kilometers_per_second": "2.831469728",
                "kilometers_per_hour": "10193.2910209457",
                "miles_per_hour": "6333.7146346537"
            },
            "miss_distance": {
                "astronomical": "0.2446569976",
                "lunar": "95.1715720664",
                "kilometers": "36600165.721555112",
                "miles": "22742288.4054480656"
            },
            "orbiting_body": "Earth"
        }
    ],
    "orbital_data": {
        "orbit_id": "7",
        "orbit_determination_date": "2019-10-20 05:52:54",
        "first_observation_date": "2019-08-21",
        "last_observation_date": "2019-10-19",
        "data_arc_in_days": 59,
        "observations_used": 32,
        "orbit_uncertainty": "7",
        "minimum_orbit_intersection": ".243092",
        "jupiter_tisserand_invariant": "3.530",
        "epoch_osculation": "2459000.5",
        "eccentricity": ".4334286201114664",
        "semi_major_axis": "2.207260475420333",
        "inclination": "2.998229413584044",
        "ascending_node_longitude": "355.5594654803793",
        "orbital_period": "1197.784825485135",
        "perihelion_distance": "1.250570613332319",
        "perihelion_argument": "346.9156939146337",
        "aphelion_distance": "3.163950337508347",
        "perihelion_time": "2458730.245167755513",
        "mean_anomaly": "81.2263918676793",
        "mean_motion": ".3005548178106117",
        "equinox": "J2000",
        "orbit_class": {
            "orbit_class_type": "AMO",
            "orbit_class_description": "Near-Earth asteroid orbits similar to that of 1221 Amor",
            "orbit_class_range": "1.017 AU < q (perihelion) < 1.3 AU"
        }
    },
    "is_sentry_object": false
}